{
  "type": "FeatureCollection",
  "features": [
    {
      "type": "Feature",
      "properties": {
        "norad_id": 66865,
        "name": "STARLINK-36117",
        "group": "last-30-days",
        "lat": 39.94514587503109,
        "lon": -118.10118028765196,
        "alt_km": 288.7678968929431,
        "timestamp": "2025-12-12T03:50:51.178888+00:00",
        "meta_object_name": "STARLINK-36117",
        "meta_object_id": "2025-281T",
        "meta_epoch": "2025-12-10T16:00:01.999584",
        "meta_mean_motion": 15.96583953,
        "meta_eccentricity": 0.00015871,
        "meta_inclination": 43.0019,
        "meta_ra_of_asc_node": 135.2145,
        "meta_arg_of_pericenter": 270.3957,
        "meta_mean_anomaly": 253.0482,
        "meta_ephemeris_type": 0,
        "meta_classification_type": "U",
        "meta_norad_cat_id": 66865,
        "meta_element_set_no": 999,
        "meta_rev_at_epoch": 246,
        "meta_bstar": -0.0028296854,
        "meta_mean_motion_dot": -0.01242568,
        "meta_mean_motion_ddot": 0.00047038241,
        "tle_line1": "1 66865U 25281T   25344.66668981 -.01242568  47038-3 -28297-2 0  9992",
        "tle_line2": "2 66865  43.0019 135.2145 0001587 270.3957 253.0482 15.96583953  2465"
      },
      "geometry": {
        "type": "Point",
        "coordinates": [
          -118.10118028765196,
          39.94514587503109
        ]
      }
    },
    {
      "type": "Feature",
      "properties": {
        "norad_id": 66866,
        "name": "STARLINK-36126",
        "group": "last-30-days",
        "lat": 39.231689299418136,
        "lon": -115.30581457931062,
        "alt_km": 288.63775888821056,
        "timestamp": "2025-12-12T03:50:51.178898+00:00",
        "meta_object_name": "STARLINK-36126",
        "meta_object_id": "2025-281U",
        "meta_epoch": "2025-12-10T18:00:02.000160",
        "meta_mean_motion": 15.96440327,
        "meta_eccentricity": 0.0001689,
        "meta_inclination": 43.002,
        "meta_ra_of_asc_node": 134.6885,
        "meta_arg_of_pericenter": 273.0721,
        "meta_mean_anomaly": 11.8299,
        "meta_ephemeris_type": 0,
        "meta_classification_type": "U",
        "meta_norad_cat_id": 66866,
        "meta_element_set_no": 999,
        "meta_rev_at_epoch": 247,
        "meta_bstar": -0.0028095,
        "meta_mean_motion_dot": -0.01224235,
        "meta_mean_motion_ddot": 0.0004571,
        "tle_line1": "1 66866U 25281U   25344.75002315 -.01224235  45710-3 -28095-2 0  9998",
        "tle_line2": "2 66866  43.0020 134.6885 0001689 273.0721  11.8299 15.96440327  2478"
      },
      "geometry": {
        "type": "Point",
        "coordinates": [
          -115.30581457931062,
          39.231689299418136
        ]
      }
    },
    {
      "type": "Feature",
      "properties": {
        "norad_id": 66867,
        "name": "STARLINK-36101",
        "group": "last-30-days",
        "lat": 38.18898751895016,
        "lon": -111.70424906137718,
        "alt_km": 288.5723901514157,
        "timestamp": "2025-12-12T03:50:51.178908+00:00",
        "meta_object_name": "STARLINK-36101",
        "meta_object_id": "2025-281V",
        "meta_epoch": "2025-12-10T18:00:02.000160",
        "meta_mean_motion": 15.96520047,
        "meta_eccentricity": 0.0001686,
        "meta_inclination": 43.0022,
        "meta_ra_of_asc_node": 134.6817,
        "meta_arg_of_pericenter": 274.9191,
        "meta_mean_anomaly": 12.5728,
        "meta_ephemeris_type": 0,
        "meta_classification_type": "U",
        "meta_norad_cat_id": 66867,
        "meta_element_set_no": 999,
        "meta_rev_at_epoch": 247,
        "meta_bstar": -0.0027961,
        "meta_mean_motion_dot": -0.01223728,
        "meta_mean_motion_ddot": 0.00045712,
        "tle_line1": "1 66867U 25281V   25344.75002315 -.01223728  45712-3 -27961-2 0  9998",
        "tle_line2": "2 66867  43.0022 134.6817 0001686 274.9191  12.5728 15.96520047  2477"
      },
      "geometry": {
        "type": "Point",
        "coordinates": [
          -111.70424906137718,
          38.18898751895016
        ]
      }
    },
    {
      "type": "Feature",
      "properties": {
        "norad_id": 66868,
        "name": "STARLINK-36108",
        "group": "last-30-days",
        "lat": 36.95708136006967,
        "lon": -107.97687491879532,
        "alt_km": 288.5303975131492,
        "timestamp": "2025-12-12T03:50:51.178920+00:00",
        "meta_object_name": "STARLINK-36108",
        "meta_object_id": "2025-281W",
        "meta_epoch": "2025-12-10T18:00:02.000160",
        "meta_mean_motion": 15.96614278,
        "meta_eccentricity": 0.0001671,
        "meta_inclination": 43.002,
        "meta_ra_of_asc_node": 134.6746,
        "meta_arg_of_pericenter": 272.8842,
        "meta_mean_anomaly": 17.3898,
        "meta_ephemeris_type": 0,
        "meta_classification_type": "U",
        "meta_norad_cat_id": 66868,
        "meta_element_set_no": 999,
        "meta_rev_at_epoch": 247,
        "meta_bstar": -0.0028019,
        "meta_mean_motion_dot": -0.01232542,
        "meta_mean_motion_ddot": 0.00046361,
        "tle_line1": "1 66868U 25281W   25344.75002315 -.01232542  46361-3 -28019-2 0  9999",
        "tle_line2": "2 66868  43.0020 134.6746 0001671 272.8842  17.3898 15.96614278  2472"
      },
      "geometry": {
        "type": "Point",
        "coordinates": [
          -107.97687491879532,
          36.95708136006967
        ]
      }
    },
    {
      "type": "Feature",
      "properties": {
        "norad_id": 66869,
        "name": "STARLINK-36092",
        "group": "last-30-days",
        "lat": 35.91775952069519,
        "lon": -105.15659532522199,
        "alt_km": 288.5591824281573,
        "timestamp": "2025-12-12T03:50:51.178930+00:00",
        "meta_object_name": "STARLINK-36092",
        "meta_object_id": "2025-281X",
        "meta_epoch": "2025-12-10T18:00:02.000160",
        "meta_mean_motion": 15.96687641,
        "meta_eccentricity": 0.0001731,
        "meta_inclination": 43.0021,
        "meta_ra_of_asc_node": 134.6691,
        "meta_arg_of_pericenter": 274.3433,
        "meta_mean_anomaly": 18.0804,
        "meta_ephemeris_type": 0,
        "meta_classification_type": "U",
        "meta_norad_cat_id": 66869,
        "meta_element_set_no": 999,
        "meta_rev_at_epoch": 247,
        "meta_bstar": -0.0027998,
        "meta_mean_motion_dot": -0.01236576,
        "meta_mean_motion_ddot": 0.00046674,
        "tle_line1": "1 66869U 25281X   25344.75002315 -.01236576  46674-3 -27998-2 0  9993",
        "tle_line2": "2 66869  43.0021 134.6691 0001731 274.3433  18.0804 15.96687641  2472"
      },
      "geometry": {
        "type": "Point",
        "coordinates": [
          -105.15659532522199,
          35.91775952069519
        ]
      }
    },
    {
      "type": "Feature",
      "properties": {
        "norad_id": 66870,
        "name": "STARLINK-36114",
        "group": "last-30-days",
        "lat": 34.46050285647817,
        "lon": -101.57937831369642,
        "alt_km": 288.44288870028595,
        "timestamp": "2025-12-12T03:50:51.178939+00:00",
        "meta_object_name": "STARLINK-36114",
        "meta_object_id": "2025-281Y",
        "meta_epoch": "2025-12-10T18:00:02.000160",
        "meta_mean_motion": 15.96782568,
        "meta_eccentricity": 0.0001629,
        "meta_inclination": 43.002,
        "meta_ra_of_asc_node": 134.662,
        "meta_arg_of_pericenter": 272.0351,
        "meta_mean_anomaly": 23.2092,
        "meta_ephemeris_type": 0,
        "meta_classification_type": "U",
        "meta_norad_cat_id": 66870,
        "meta_element_set_no": 999,
        "meta_rev_at_epoch": 247,
        "meta_bstar": -0.002797,
        "meta_mean_motion_dot": -0.01241749,
        "meta_mean_motion_ddot": 0.00047077,
        "tle_line1": "1 66870U 25281Y   25344.75002315 -.01241749  47077-3 -27970-2 0  9991",
        "tle_line2": "2 66870  43.0020 134.6620 0001629 272.0351  23.2092 15.96782568  2476"
      },
      "geometry": {
        "type": "Point",
        "coordinates": [
          -101.57937831369642,
          34.46050285647817
        ]
      }
    },
    {
      "type": "Feature",
      "properties": {
        "norad_id": 66871,
        "name": "STARLINK-36095",
        "group": "last-30-days",
        "lat": 32.86175653433757,
        "lon": -98.0446008452049,
        "alt_km": 288.4583950375736,
        "timestamp": "2025-12-12T03:50:51.178951+00:00",
        "meta_object_name": "STARLINK-36095",
        "meta_object_id": "2025-281Z",
        "meta_epoch": "2025-12-10T18:00:02.000160",
        "meta_mean_motion": 15.96880545,
        "meta_eccentricity": 0.000163,
        "meta_inclination": 43.0018,
        "meta_ra_of_asc_node": 134.6543,
        "meta_arg_of_pericenter": 274.017,
        "meta_mean_anomaly": 24.1112,
        "meta_ephemeris_type": 0,
        "meta_classification_type": "U",
        "meta_norad_cat_id": 66871,
        "meta_element_set_no": 999,
        "meta_rev_at_epoch": 247,
        "meta_bstar": -0.0027933,
        "meta_mean_motion_dot": -0.01246757,
        "meta_mean_motion_ddot": 0.00047473,
        "tle_line1": "1 66871U 25281Z   25344.75002315 -.01246757  47473-3 -27933-2 0  9995",
        "tle_line2": "2 66871  43.0018 134.6543 0001630 274.0170  24.1112 15.96880545  2478"
      },
      "geometry": {
        "type": "Point",
        "coordinates": [
          -98.0446008452049,
          32.86175653433757
        ]
      }
    }
  ]
}